NORAD_CAT_ID,OBJECT_NAME,OBJECT_TYPE,EPOCH,MEAN_MOTION,ECCENTRICITY,INCLINATION,RA_OF_ASC_NODE,ARG_OF_PERICENTER,MEAN_ANOMALY,BSTAR,MEAN_MOTION_DOT,MEAN_MOTION_DDOT,TLE_LINE0,TLE_LINE1,TLE_LINE2,SEMIMAJOR_AXIS,PERIOD,APOGEE,PERIGEE,DECAYED
54160.0,STARLINK-5233,PAYLOAD,2024-02-13 21:58:19,15.08838984,0.0001297,53.2179,117.4011,97.794,262.32,2.6349e-05,1.31e-06,0.0,0 STARLINK-5233,1 54160U 22141D   24044.91550811  .00000131  00000-0  26349-4 0  9993,2 54160  53.2179 117.4011 0001297  97.7940 262.3200 15.08838984 72407,6917.883,95.438,540.646,538.851,0.0
54160.0,STARLINK-5233,PAYLOAD,2024-02-14 04:19:52,15.08846329,0.0001131,53.2169,116.2123,70.0349,290.0765,-3.7803e-05,-8.9e-06,0.0,0 STARLINK-5233,1 54160U 22141D   24045.18046790 -.00000890  00000-0 -37803-4 0  9990,2 54160  53.2169 116.2123 0001131  70.0349 290.0765 15.08846329 72441,6917.861,95.437,540.508,538.944,0.0
54160.0,STARLINK-5233,PAYLOAD,2024-02-14 12:16:46,15.08863818,0.0001288,53.2164,114.7263,98.8772,261.2366,0.0003053,4.577e-05,0.0,0 STARLINK-5233,1 54160U 22141D   24045.51164981  .00004577  00000-0  30530-3 0  9993,2 54160  53.2164 114.7263 0001288  98.8772 261.2366 15.08863818 72499,6917.808,95.436,540.564,538.782,0.0
54160.0,STARLINK-5233,PAYLOAD,2024-02-14 21:49:06,15.08840113,0.0001583,53.2166,112.944,129.408,230.7052,0.00026989,4.01e-05,0.0,0 STARLINK-5233,1 54160U 22141D   24045.90910429  .00004010  00000-0  26989-3 0  9997,2 54160  53.2166 112.9440 0001583 129.4080 230.7052 15.08840113 72552,6917.88,95.438,540.84,538.65,0.0
54160.0,STARLINK-5233,PAYLOAD,2024-02-15 04:10:39,15.08837363,0.0002077,53.2156,111.7552,83.2817,276.8412,0.00036159,5.471e-05,0.0,0 STARLINK-5233,1 54160U 22141D   24046.17407289  .00005471  00000-0  36159-3 0  9994,2 54160  53.2156 111.7552 0002077  83.2817 276.8412 15.08837363 72594,6917.888,95.438,541.19,538.317,0.0
54160.0,STARLINK-5233,PAYLOAD,2024-02-15 10:32:12,15.08831896,0.000165,53.2159,110.5637,93.5805,266.5375,1.3023e-05,-8.1e-07,0.0,0 STARLINK-5233,1 54160U 22141D   24046.43903283 -.00000081  00000-0  13023-4 0  9997,2 54160  53.2159 110.5637 0001650  93.5805 266.5375 15.08831896 72639,6917.905,95.438,540.912,538.629,0.0
54160.0,STARLINK-5233,PAYLOAD,2024-02-15 21:39:54,15.08841175,0.0001527,53.215,108.4837,88.8529,271.2639,0.00016747,2.378e-05,0.0,0 STARLINK-5233,1 54160U 22141D   24046.90271075  .00002378  00000-0  16747-3 0  9991,2 54160  53.2150 108.4837 0001527  88.8529 271.2639 15.08841175 72706,6917.877,95.437,540.798,538.685,0.0
54160.0,STARLINK-5233,PAYLOAD,2024-02-16 10:22:58,15.08867976,0.000143,53.2152,106.1045,92.215,267.9006,0.0012107,0.00019048,0.0,0 STARLINK-5233,1 54160U 22141D   24047.43262454  .00019048  00000-0  12107-2 0  9998,2 54160  53.2152 106.1045 0001430  92.2150 267.9006 15.08867976 72781,6917.795,95.436,540.649,538.671,0.0
54160.0,STARLINK-5233,PAYLOAD,2024-02-16 13:33:44,15.08876282,0.0001545,53.216,105.509,92.2009,267.916,0.0014461,0.00022825,0.0,0 STARLINK-5233,1 54160U 22141D   24047.56510227  .00022825  00000-0  14461-2 0  9998,2 54160  53.2160 105.5090 0001545  92.2009 267.9160 15.08876282 72807,6917.769,95.435,540.703,538.566,0.0
54160.0,STARLINK-5233,PAYLOAD,2024-02-17 10:13:46,15.08845094,0.0001466,53.2166,101.6439,100.3399,259.7759,0.00035462,5.361e-05,0.0,0 STARLINK-5233,1 54160U 22141D   24048.42622689  .00005361  00000-0  35462-3 0  9991,2 54160  53.2166 101.6439 0001466 100.3399 259.7759 15.08845094 72936,6917.865,95.437,540.744,538.716,0.0
54160.0,STARLINK-5233,PAYLOAD,2024-02-17 13:24:32,15.08846722,0.0001496,53.2165,101.048,101.6896,258.4264,0.00057963,8.951e-05,0.0,0 STARLINK-5233,1 54160U 22141D   24048.55870715  .00008951  00000-0  57963-3 0  9998,2 54160  53.2165 101.0480 0001496 101.6896 258.4264 15.08846722 72952,6917.86,95.437,540.76,538.69,0.0
54160.0,STARLINK-5233,PAYLOAD,2024-02-18 03:43:01,15.08830254,0.000137,53.2175,98.3714,97.7993,262.3155,0.00090181,0.0001409,0.0,0 STARLINK-5233,1 54160U 22141D   24049.15487327  .00014090  00000-0  90181-3 0  9998,2 54160  53.2175  98.3714 0001370  97.7993 262.3155 15.08830254 73042,6917.91,95.438,540.723,538.827,0.0
54160.0,STARLINK-5233,PAYLOAD,2024-02-18 13:15:19,15.08849803,0.0001602,53.2167,96.5886,96.4396,263.6778,0.0016278,0.0002572,0.0,0 STARLINK-5233,1 54160U 22141D   24049.55231410  .00025720  00000-0  16278-2 0  9998,2 54160  53.2167  96.5886 0001602  96.4396 263.6778 15.08849803 73106,6917.85,95.437,540.824,538.607,0.0
54160.0,STARLINK-5233,PAYLOAD,2024-02-18 19:36:52,15.08839155,0.0001013,53.2178,95.4003,105.4445,254.666,0.00029152,4.355e-05,0.0,0 STARLINK-5233,1 54160U 22141D   24049.81727356  .00004355  00000-0  29152-3 0  9993,2 54160  53.2178  95.4003 0001013 105.4445 254.6660 15.08839155 73142,6917.883,95.438,540.449,539.047,0.0
54160.0,STARLINK-5233,PAYLOAD,2024-02-19 03:33:48,15.08844031,0.0001531,53.2172,93.9121,92.8569,267.2598,0.00077928,0.00012137,0.0,0 STARLINK-5233,1 54160U 22141D   24050.14847610  .00012137  00000-0  77928-3 0  9998,2 54160  53.2172  93.9121 0001531  92.8569 267.2598 15.08844031 73195,6917.868,95.437,540.792,538.674,0.0
54160.0,STARLINK-5233,PAYLOAD,2024-02-19 09:55:20,15.08849016,0.0001434,53.2172,92.7232,94.8508,265.2648,0.00090872,0.00014207,0.0,0 STARLINK-5233,1 54160U 22141D   24050.41343521  .00014207  00000-0  90872-3 0  9993,2 54160  53.2172  92.7232 0001434  94.8508 265.2648 15.08849016 73239,6917.853,95.437,540.71,538.726,0.0
54160.0,STARLINK-5233,PAYLOAD,2024-02-19 19:27:39,15.08845658,0.0001289,53.2166,90.9408,91.5333,268.5806,0.00072095,0.00011206,0.0,0 STARLINK-5233,1 54160U 22141D   24050.81087610  .00011206  00000-0  72095-3 0  9994,2 54160  53.2166  90.9408 0001289  91.5333 268.5806 15.08845658 73291,6917.863,95.437,540.62,538.836,0.0
54160.0,STARLINK-5233,PAYLOAD,2024-02-20 03:24:35,15.08833049,0.0001269,53.2167,89.4533,94.7791,265.3346,0.00026997,4.01e-05,0.0,0 STARLINK-5233,1 54160U 22141D   24051.14207781  .00004010  00000-0  26997-3 0  9999,2 54160  53.2167  89.4533 0001269  94.7791 265.3346 15.08833049 73346,6917.902,95.438,540.645,538.889,0.0
54160.0,STARLINK-5233,PAYLOAD,2024-02-20 09:46:08,15.08840392,0.0001514,53.217,88.265,97.9298,262.1866,0.00023877,3.514e-05,0.0,0 STARLINK-5233,1 54160U 22141D   24051.40703827  .00003514  00000-0  23877-3 0  9992,2 54160  53.2170  88.2650 0001514  97.9298 262.1866 15.08840392 73382,6917.879,95.438,540.792,538.697,0.0
54160.0,STARLINK-5233,PAYLOAD,2024-02-20 19:18:26,15.08844012,0.0001402,53.2165,86.4788,91.4351,268.6801,0.00032339,4.863e-05,0.0,0 STARLINK-5233,1 54160U 22141D   24051.80447791  .00004863  00000-0  32339-3 0  9992,2 54160  53.2165  86.4788 0001402  91.4351 268.6801 15.08844012 73443,6917.868,95.437,540.703,538.763,0.0
54160.0,STARLINK-5233,PAYLOAD,2024-02-21 09:36:54,15.08848704,0.0001486,53.2175,83.8044,91.58,268.5363,0.00030213,4.525e-05,0.0,0 STARLINK-5233,1 54160U 22141D   24052.40063575  .00004525  00000-0  30213-3 0  9997,2 54160  53.2175  83.8044 0001486  91.5800 268.5363 15.08848704 73536,6917.854,95.437,540.747,538.691,0.0
54160.0,STARLINK-5233,PAYLOAD,2024-02-21 19:09:13,15.08842371,0.0001603,53.2178,82.0161,83.1302,276.9872,0.0001319,1.812e-05,0.0,0 STARLINK-5233,1 54160U 22141D   24052.79807734  .00001812  00000-0  13190-3 0  9993,2 54160  53.2178  82.0161 0001603  83.1302 276.9872 15.08842371 73593,6917.873,95.437,540.847,538.629,0.0
54160.0,STARLINK-5233,PAYLOAD,2024-02-22 09:27:40,15.08876118,0.0001532,53.2169,79.3392,88.8906,271.2261,0.00058021,8.967e-05,0.0,0 STARLINK-5233,1 54160U 22141D   24053.39421930  .00008967  00000-0  58021-3 0  9990,2 54160  53.2169  79.3392 0001532  88.8906 271.2261 15.08876118 73687,6917.77,95.435,540.695,538.575,0.0
54160.0,STARLINK-5233,PAYLOAD,2024-02-22 19:00:00,15.08853818,0.0001552,53.2174,77.5549,98.6937,261.4231,0.00020886,3.039e-05,0.0,0 STARLINK-5233,1 54160U 22141D   24053.79166697  .00003039  00000-0  20886-3 0  9993,2 54160  53.2174  77.5549 0001552  98.6937 261.4231 15.08853818 73749,6917.838,95.437,540.777,538.63,0.0
54160.0,STARLINK-5233,PAYLOAD,2024-02-23 07:43:05,15.08835216,0.0001635,53.2182,75.1763,101.7735,258.3441,-0.0001115,-2.062e-05,0.0,0 STARLINK-5233,1 54160U 22141D   24054.32159581 -.00002062  00000-0 -11150-3 0  9998,2 54160  53.2182  75.1763 0001635 101.7735 258.3441 15.08835216 73823,6917.895,95.438,540.891,538.629,0.0
54160.0,STARLINK-5233,PAYLOAD,2024-02-24 07:33:53,15.08833125,0.0001571,53.2161,70.718,100.8814,259.2355,6.8368e-05,8e-06,0.0,0 STARLINK-5233,1 54160U 22141D   24055.31520194  .00000800  00000-0  68368-4 0  9990,2 54160  53.2161  70.7180 0001571 100.8814 259.2355 15.08833125 73978,6917.901,95.438,540.853,538.68,0.0
54160.0,STARLINK-5233,PAYLOAD,2024-02-25 04:13:54,15.08838376,0.000174,53.2156,66.8527,103.8288,256.2898,0.00027461,4.085e-05,0.0,0 STARLINK-5233,1 54160U 22141D   24056.17632311  .00004085  00000-0  27461-3 0  9997,2 54160  53.2156  66.8527 0001740 103.8288 256.2898 15.08838376 74107,6917.885,95.438,540.954,538.547,0.0
54160.0,STARLINK-5233,PAYLOAD,2024-02-25 07:24:40,15.08841445,0.000186,53.2168,66.2595,104.6275,255.4924,0.00028514,4.253e-05,0.0,0 STARLINK-5233,1 54160U 22141D   24056.30880246  .00004253  00000-0  28514-3 0  9991,2 54160  53.2168  66.2595 0001860 104.6275 255.4924 15.08841445 74121,6917.876,95.437,541.028,538.454,0.0
54160.0,STARLINK-5233,PAYLOAD,2024-02-26 05:40:04,15.08839285,0.000197,53.218,62.0971,104.1015,256.0196,0.00012885,1.763e-05,0.0,0 STARLINK-5233,1 54160U 22141D   24057.23616571  .00001763  00000-0  12885-3 0  9999,2 54160  53.2180  62.0971 0001970 104.1015 256.0196 15.08839285 74268,6917.883,95.438,541.11,538.385,0.0
54160.0,STARLINK-5233,PAYLOAD,2024-02-27 07:06:15,15.08838422,0.0002011,53.2183,57.3403,106.7484,253.3728,3.4566e-05,2.62e-06,0.0,0 STARLINK-5233,1 54160U 22141D   24058.29600709  .00000262  00000-0  34566-4 0  9996,2 54160  53.2183  57.3403 0002011 106.7484 253.3728 15.08838422 74424,6917.885,95.438,541.141,538.359,0.0
